NORAD_CAT_ID,OBJECT_NAME,OBJECT_TYPE,EPOCH,MEAN_MOTION,ECCENTRICITY,INCLINATION,RA_OF_ASC_NODE,ARG_OF_PERICENTER,MEAN_ANOMALY,BSTAR,MEAN_MOTION_DOT,MEAN_MOTION_DDOT,TLE_LINE0,TLE_LINE1,TLE_LINE2,SEMIMAJOR_AXIS,PERIOD,APOGEE,PERIGEE,DECAYED
53805.0,STARLINK-4763,PAYLOAD,2024-04-23 03:54:53,15.08845203,0.0001726,53.2165,86.6949,123.0564,237.0594,0.00021396,3.119e-05,0.0,0 STARLINK-4763,1 53805U 22111AJ  24114.16312301  .00003119  00000-0  21396-3 0  9995,2 53805  53.2165  86.6949 0001726 123.0564 237.0594 15.08845203 89726,6917.864,95.437,540.924,538.535,0.0
53805.0,STARLINK-4763,PAYLOAD,2024-04-23 07:05:40,15.08843993,0.0001526,53.217,86.1025,95.1227,264.994,0.00017169,2.446e-05,0.0,0 STARLINK-4763,1 53805U 22111AJ  24114.29560535  .00002446  00000-0  17169-3 0  9998,2 53805  53.2170  86.1025 0001526  95.1227 264.9940 15.08843993 90556,6917.868,95.437,540.789,538.678,0.0
53805.0,STARLINK-4763,PAYLOAD,2024-04-23 21:24:08,15.0884678,0.0001583,53.217,83.4296,107.6255,252.4911,-0.00012296,-2.245e-05,0.0,0 STARLINK-4763,1 53805U 22111AJ  24114.89176168 -.00002245  00000-0 -12296-3 0  9994,2 53805  53.2170  83.4296 0001583 107.6255 252.4911 15.08846780 90646,6917.86,95.437,540.82,538.63,0.0
53805.0,STARLINK-4763,PAYLOAD,2024-04-24 05:21:03,15.08850016,0.0001548,53.2175,81.9458,88.1762,271.9408,-1.3667e-05,-5.06e-06,0.0,0 STARLINK-4763,1 53805U 22111AJ  24115.22295829 -.00000506  00000-0 -13667-4 0  9990,2 53805  53.2175  81.9458 0001548  88.1762 271.9408 15.08850016 89889,6917.85,95.437,540.786,538.644,0.0
53805.0,STARLINK-4763,PAYLOAD,2024-04-24 21:14:55,15.08840053,0.0001475,53.2188,78.9715,91.8038,268.3123,6.9871e-05,8.24e-06,0.0,0 STARLINK-4763,1 53805U 22111AJ  24115.88536470  .00000824  00000-0  69871-4 0  9991,2 53805  53.2188  78.9715 0001475  91.8038 268.3123 15.08840053 89986,6917.88,95.438,540.766,538.725,0.0
53805.0,STARLINK-4763,PAYLOAD,2024-04-25 05:11:51,15.08843331,0.0001493,53.2183,77.4825,88.6839,271.4324,0.0001065,1.408e-05,0.0,0 STARLINK-4763,1 53805U 22111AJ  24116.21656349  .00001408  00000-0  10650-3 0  9996,2 53805  53.2183  77.4825 0001493  88.6839 271.4324 15.08843331 90847,6917.87,95.437,540.768,538.702,0.0
53805.0,STARLINK-4763,PAYLOAD,2024-04-26 03:27:15,15.08841786,0.0001504,53.219,73.3173,95.5071,264.6093,2.8262e-05,1.62e-06,0.0,0 STARLINK-4763,1 53805U 22111AJ  24117.14392703  .00000162  00000-0  28262-4 0  9995,2 53805  53.2190  73.3173 0001504  95.5071 264.6093 15.08841786 90179,6917.875,95.437,540.78,538.699,0.0
53805.0,STARLINK-4763,PAYLOAD,2024-04-27 03:18:01,15.08859896,0.000144,53.2175,68.8575,93.5095,266.6062,0.00036431,5.518e-05,0.0,0 STARLINK-4763,1 53805U 22111AJ  24118.13751783  .00005518  00000-0  36431-3 0  9998,2 53805  53.2175  68.8575 0001440  93.5095 266.6062 15.08859896 90326,6917.82,95.436,540.681,538.688,0.0
53805.0,STARLINK-4763,PAYLOAD,2024-04-27 06:28:47,15.08862902,0.0001374,53.2173,68.2586,106.5649,253.5494,0.00032988,4.969e-05,0.0,0 STARLINK-4763,1 53805U 22111AJ  24118.26999252  .00004969  00000-0  32988-3 0  9999,2 53805  53.2173  68.2586 0001374 106.5649 253.5494 15.08862902 91154,6917.81,95.436,540.626,538.725,0.0
53805.0,STARLINK-4763,PAYLOAD,2024-04-28 03:08:49,15.08832753,0.0001497,53.2183,64.3978,69.3376,290.7776,-6.9997e-05,-1.402e-05,0.0,0 STARLINK-4763,1 53805U 22111AJ  24119.13113307 -.00001402  00000-0 -69997-4 0  9997,2 53805  53.2183  64.3978 0001497  69.3376 290.7776 15.08832753 90477,6917.903,95.438,540.803,538.732,0.0
53805.0,STARLINK-4763,PAYLOAD,2024-04-29 02:59:36,15.08848237,0.0001421,53.2174,59.9375,79.029,281.0862,6.5663e-05,7.57e-06,0.0,0 STARLINK-4763,1 53805U 22111AJ  24120.12472658  .00000757  00000-0  65663-4 0  9991,2 53805  53.2174  59.9375 0001421  79.0290 281.0862 15.08848237 90628,6917.855,95.437,540.703,538.737,0.0
53805.0,STARLINK-4763,PAYLOAD,2024-04-29 12:31:55,15.08845716,0.0001488,53.2174,58.1535,77.2203,282.8955,0.00019924,2.885e-05,0.0,0 STARLINK-4763,1 53805U 22111AJ  24120.52216870  .00002885  00000-0  19924-3 0  9999,2 53805  53.2174  58.1535 0001488  77.2203 282.8955 15.08845716 91491,6917.863,95.437,540.757,538.699,0.0
53805.0,STARLINK-4763,PAYLOAD,2024-04-30 02:50:24,15.08833191,0.0001562,53.2182,55.4804,91.8036,268.3135,6.6972e-05,7.78e-06,0.0,0 STARLINK-4763,1 53805U 22111AJ  24121.11833613  .00000778  00000-0  66972-4 0  9990,2 53805  53.2182  55.4804 0001562  91.8036 268.3135 15.08833191 90771,6917.901,95.438,540.847,538.686,0.0
53805.0,STARLINK-4763,PAYLOAD,2024-04-30 12:22:42,15.08838873,0.0001605,53.2186,53.696,89.9996,270.1181,7.9952e-05,9.85e-06,0.0,0 STARLINK-4763,1 53805U 22111AJ  24121.51577400  .00000985  00000-0  79952-4 0  9995,2 53805  53.2186  53.6960 0001605  89.9996 270.1181 15.08838873 91640,6917.884,95.438,540.859,538.639,0.0
53805.0,STARLINK-4763,PAYLOAD,2024-05-01 02:41:10,15.08850473,0.0001553,53.2193,51.0194,92.5295,267.5875,0.00011646,1.566e-05,0.0,0 STARLINK-4763,1 53805U 22111AJ  24122.11192754  .00001566  00000-0  11646-3 0  9998,2 53805  53.2193  51.0194 0001553  92.5295 267.5875 15.08850473 90923,6917.848,95.437,540.788,538.639,0.0
53805.0,STARLINK-4763,PAYLOAD,2024-05-01 12:13:29,15.08847123,0.0001464,53.2185,49.2339,88.9609,271.1551,6.017e-05,6.7e-06,0.0,0 STARLINK-4763,1 53805U 22111AJ  24122.50936914  .00000670  00000-0  60170-4 0  9997,2 53805  53.2185  49.2339 0001464  88.9609 271.1551 15.08847123 91799,6917.859,95.437,540.736,538.711,0.0
53805.0,STARLINK-4763,PAYLOAD,2024-05-01 18:35:02,15.08840239,0.000162,53.219,48.0449,88.32,271.7977,0.00013686,1.891e-05,0.0,0 STARLINK-4763,1 53805U 22111AJ  24122.77433239  .00001891  00000-0  13686-3 0  9993,2 53805  53.2190  48.0449 0001620  88.3200 271.7977 15.08840239 91024,6917.88,95.438,540.865,538.624,0.0
53805.0,STARLINK-4763,PAYLOAD,2024-05-02 12:04:17,15.08837656,0.0001437,53.2179,44.7707,81.7473,278.3682,3.6862e-05,2.99e-06,0.0,0 STARLINK-4763,1 53805U 22111AJ  24123.50297614  .00000299  00000-0  36862-4 0  9993,2 53805  53.2179  44.7707 0001437  81.7473 278.3682 15.08837656 91133,6917.888,95.438,540.747,538.758,0.0
53805.0,STARLINK-4763,PAYLOAD,2024-05-03 03:58:06,15.08859542,0.0001361,53.2183,41.799,82.875,277.2397,0.00014613,2.04e-05,0.0,0 STARLINK-4763,1 53805U 22111AJ  24124.16535764  .00002040  00000-0  14613-3 0  9992,2 53805  53.2183  41.7990 0001361  82.8750 277.2397 15.08859542 91235,6917.821,95.436,540.627,538.744,0.0
53805.0,STARLINK-4763,PAYLOAD,2024-05-03 11:55:03,15.0884079,0.0001352,53.2186,40.3124,92.6455,267.4692,1.5711e-05,-3.8e-07,0.0,0 STARLINK-4763,1 53805U 22111AJ  24124.49657119 -.00000038  00000-0  15711-4 0  9994,2 53805  53.2186  40.3124 0001352  92.6455 267.4692 15.08840790 91282,6917.878,95.438,540.678,538.808,0.0
53805.0,STARLINK-4763,PAYLOAD,2024-05-04 11:45:51,15.08837411,0.0001506,53.2184,35.8484,111.5534,248.5619,-1.2857e-05,-4.93e-06,0.0,0 STARLINK-4763,1 53805U 22111AJ  24125.49017649 -.00000493  00000-0 -12857-4 0  9997,2 53805  53.2184  35.8484 0001506 111.5534 248.5619 15.08837411 91430,6917.888,95.438,540.795,538.711,0.0
53805.0,STARLINK-4763,PAYLOAD,2024-05-05 03:39:42,15.08849114,0.0001344,53.218,32.8761,96.5133,263.6012,-2.0468e-05,-6.14e-06,0.0,0 STARLINK-4763,1 53805U 22111AJ  24126.15257120 -.00000614  00000-0 -20468-4 0  9993,2 53805  53.2180  32.8761 0001344  96.5133 263.6012 15.08849114 91537,6917.853,95.437,540.647,538.788,0.0
53805.0,STARLINK-4763,PAYLOAD,2024-05-05 21:08:56,15.08837936,0.0001371,53.2184,29.6041,110.0735,250.0405,0.00012927,1.77e-05,0.0,0 STARLINK-4763,1 53805U 22111AJ  24126.88121435  .00001770  00000-0  12927-3 0  9994,2 53805  53.2184  29.6041 0001371 110.0735 250.0405 15.08837936 91643,6917.887,95.438,540.7,538.803,0.0
53805.0,STARLINK-4763,PAYLOAD,2024-05-05 22:44:20,15.08838212,0.0001358,53.2185,29.3073,108.6225,251.4914,0.00013808,1.91e-05,0.0,0 STARLINK-4763,1 53805U 22111AJ  24126.94745432  .00001910  00000-0  13808-3 0  9995,2 53805  53.2185  29.3073 0001358 108.6225 251.4914 15.08838212 92467,6917.886,95.438,540.69,538.811,0.0
53805.0,STARLINK-4763,PAYLOAD,2024-05-06 09:52:01,15.08848371,0.0001171,53.2175,27.2267,95.0774,265.0352,0.00012882,1.763e-05,0.0,0 STARLINK-4763,1 53805U 22111AJ  24127.41112850  .00001763  00000-0  12882-3 0  9997,2 53805  53.2175  27.2267 0001171  95.0774 265.0352 15.08848371 92531,6917.855,95.437,540.53,538.91,0.0
53805.0,STARLINK-4763,PAYLOAD,2024-05-06 22:35:06,15.0884614,0.0001378,53.2186,24.848,97.579,262.5359,0.00011671,1.57e-05,0.0,0 STARLINK-4763,1 53805U 22111AJ  24127.94104981  .00001570  00000-0  11671-3 0  9992,2 53805  53.2186  24.8480 0001378  97.5790 262.5359 15.08846140 92617,6917.862,95.437,540.68,538.773,0.0
53805.0,STARLINK-4763,PAYLOAD,2024-05-07 00:10:29,15.0884949,0.0001327,53.2183,24.5524,93.6205,266.4939,0.00014678,2.049e-05,0.0,0 STARLINK-4763,1 53805U 22111AJ  24128.00728708  .00002049  00000-0  14678-3 0  9991,2 53805  53.2183  24.5524 0001327  93.6205 266.4939 15.08849490 91811,6917.851,95.437,540.634,538.798,0.0
53805.0,STARLINK-4763,PAYLOAD,2024-05-07 09:42:49,15.08841546,0.0001255,53.2175,22.7655,87.5451,272.5685,6.1295e-05,6.88e-06,0.0,0 STARLINK-4763,1 53805U 22111AJ  24128.40473416  .00000688  00000-0  61295-4 0  9993,2 53805  53.2175  22.7655 0001255  87.5451 272.5685 15.08841546 91878,6917.876,95.437,540.609,538.872,0.0
53805.0,STARLINK-4763,PAYLOAD,2024-05-07 20:50:31,15.08831685,0.0001714,53.2201,20.6894,107.3546,252.7633,-2.6523e-05,-7.1e-06,0.0,0 STARLINK-4763,1 53805U 22111AJ  24128.86842451 -.00000710  00000-0 -26523-4 0  9995,2 53805  53.2201  20.6894 0001714 107.3546 252.7633 15.08831685 91940,6917.906,95.438,540.957,538.585,0.0
53805.0,STARLINK-4763,PAYLOAD,2024-05-07 22:25:55,15.08832114,0.0001316,53.2182,20.3874,98.3556,261.7585,-6.1521e-05,-1.267e-05,0.0,0 STARLINK-4763,1 53805U 22111AJ  24128.93466455 -.00001267  00000-0 -61521-4 0  9994,2 53805  53.2182  20.3874 0001316  98.3556 261.7585 15.08832114 92766,6917.904,95.438,540.68,538.859,0.0
